SL-14 R/B               
1 16792U 86046B   26053.58501469  .00000437  00000+0  47572-4 0  9995
2 16792  82.4793  94.4577 0021572 278.4376  81.4395 14.85574427124161
SL-14 R/B               
1 16882U 86055B   26053.72611335  .00000504  00000+0  55227-4 0  9996
2 16882  82.5228 140.7360 0019484  26.0859  90.1691 14.85626928117142
AJISAI (EGS)            
1 16908U 86061A   26053.79795506 -.00000081  00000+0  11313-3 0  9990
2 16908  50.0086 139.1405 0011229 248.6442 268.3390 12.44515436466140
COSMOS 1812             
1 17295U 87003A   26053.68645230  .00635493  19794-3  87788-3 0  9996
2 17295  82.4738 212.7867 0004709 292.8391  67.2393 16.06078661142069
SL-14 R/B               
1 17567U 87024B   26053.62393104  .00000445  00000+0  47919-4 0  9997
2 17567  82.5268 106.9262 0017050 314.1354  45.8459 14.86116857 85891
COSMOS 1833             
1 17589U 87027A   26053.85289042 -.00000081  00000+0 -17399-4 0  9991
2 17589  70.9234 357.1986 0024805 234.8243 125.0554 14.13057162  8225
SL-16 R/B               
1 17590U 87027B   26053.72838148  .00000187  00000+0  11628-3 0  9999
2 17590  71.0036 308.0235 0004213 170.6012 189.5192 14.17166321 13224
SL-14 R/B               
1 17912U 87038B   26053.67850756  .00000431  00000+0  47255-4 0  9990
2 17912  82.5028 310.9474 0018354 210.5366 149.4783 14.85354292 77002
COSMOS 1844             
1 17973U 87041A   26053.76237551  .00000140  00000+0  97453-4 0  9995
2 17973  70.8985  65.6615 0029260  41.2431 319.0893 14.14552009  1475
SL-14 R/B               
1 18153U 87055B   26053.79280116  .00000584  00000+0  64392-4 0  9997
2 18153  82.5018   3.0673 0022150  64.6845 295.6662 14.85608929 67726
COSMOS 1867             
1 18187U 87060A   26053.56074563 -.00000040  00000+0  22678-4 0  9991
2 18187  65.0127 349.0719 0014280 277.7334  82.2129 14.31500412 17776
SL-14 R/B               
1 18749U 88001B   26053.71969226  .00000558  00000+0  61710-4 0  9990
2 18749  82.5123 209.4382 0016687 289.6556  70.2859 14.85507310 39804
