CCSDS_OMM_VERS = 2.0
CREATION_DATE  = 
ORIGINATOR     = 

OBJECT_NAME    = SL-14 R/B
OBJECT_ID      = 1986-046B
CENTER_NAME    = EARTH
REF_FRAME      = TEME
TIME_SYSTEM    = UTC
MEAN_ELEMENT_THEORY = SGP/SGP4

EPOCH          = 2026-02-22T14:02:25.269216
MEAN_MOTION    = 14.85574427
ECCENTRICITY   = .0021572
INCLINATION    = 82.4793
RA_OF_ASC_NODE = 94.4577
ARG_OF_PERICENTER = 278.4376
MEAN_ANOMALY   = 81.4395

EPHEMERIS_TYPE = 0
CLASSIFICATION_TYPE = U
NORAD_CAT_ID   = 16792
ELEMENT_SET_NO = 999
REV_AT_EPOCH   = 12416
BSTAR          = .47572E-4
MEAN_MOTION_DOT = .437E-5
MEAN_MOTION_DDOT = 0

CCSDS_OMM_VERS = 2.0
CREATION_DATE  = 
ORIGINATOR     = 

OBJECT_NAME    = SL-14 R/B
OBJECT_ID      = 1986-055B
CENTER_NAME    = EARTH
REF_FRAME      = TEME
TIME_SYSTEM    = UTC
MEAN_ELEMENT_THEORY = SGP/SGP4

EPOCH          = 2026-02-22T17:25:36.193440
MEAN_MOTION    = 14.85626928
ECCENTRICITY   = .0019484
INCLINATION    = 82.5228
RA_OF_ASC_NODE = 140.7360
ARG_OF_PERICENTER = 26.0859
MEAN_ANOMALY   = 90.1691

EPHEMERIS_TYPE = 0
CLASSIFICATION_TYPE = U
NORAD_CAT_ID   = 16882
ELEMENT_SET_NO = 999
REV_AT_EPOCH   = 11714
BSTAR          = .55227E-4
MEAN_MOTION_DOT = .504E-5
MEAN_MOTION_DDOT = 0

CCSDS_OMM_VERS = 2.0
CREATION_DATE  = 
ORIGINATOR     = 

OBJECT_NAME    = AJISAI (EGS)
OBJECT_ID      = 1986-061A
CENTER_NAME    = EARTH
REF_FRAME      = TEME
TIME_SYSTEM    = UTC
MEAN_ELEMENT_THEORY = SGP/SGP4

EPOCH          = 2026-02-22T19:09:03.317184
MEAN_MOTION    = 12.44515436
ECCENTRICITY   = .0011229
INCLINATION    = 50.0086
RA_OF_ASC_NODE = 139.1405
ARG_OF_PERICENTER = 248.6442
MEAN_ANOMALY   = 268.3390

EPHEMERIS_TYPE = 0
CLASSIFICATION_TYPE = U
NORAD_CAT_ID   = 16908
ELEMENT_SET_NO = 999
REV_AT_EPOCH   = 46614
BSTAR          = .11313E-3
MEAN_MOTION_DOT = -.81E-6
MEAN_MOTION_DDOT = 0

CCSDS_OMM_VERS = 2.0
CREATION_DATE  = 
ORIGINATOR     = 

OBJECT_NAME    = COSMOS 1812
OBJECT_ID      = 1987-003A
CENTER_NAME    = EARTH
REF_FRAME      = TEME
TIME_SYSTEM    = UTC
MEAN_ELEMENT_THEORY = SGP/SGP4

EPOCH          = 2026-02-22T16:28:29.478720
MEAN_MOTION    = 16.06078661
ECCENTRICITY   = .0004709
INCLINATION    = 82.4738
RA_OF_ASC_NODE = 212.7867
ARG_OF_PERICENTER = 292.8391
MEAN_ANOMALY   = 67.2393

EPHEMERIS_TYPE = 0
CLASSIFICATION_TYPE = U
NORAD_CAT_ID   = 17295
ELEMENT_SET_NO = 999
REV_AT_EPOCH   = 14206
BSTAR          = .87788E-3
MEAN_MOTION_DOT = .635493E-2
MEAN_MOTION_DDOT = .19794E-3

CCSDS_OMM_VERS = 2.0
CREATION_DATE  = 
ORIGINATOR     = 

OBJECT_NAME    = SL-14 R/B
OBJECT_ID      = 1987-024B
CENTER_NAME    = EARTH
REF_FRAME      = TEME
TIME_SYSTEM    = UTC
MEAN_ELEMENT_THEORY = SGP/SGP4

EPOCH          = 2026-02-22T14:58:27.641856
MEAN_MOTION    = 14.86116857
ECCENTRICITY   = .001705
INCLINATION    = 82.5268
RA_OF_ASC_NODE = 106.9262
ARG_OF_PERICENTER = 314.1354
MEAN_ANOMALY   = 45.8459

EPHEMERIS_TYPE = 0
CLASSIFICATION_TYPE = U
NORAD_CAT_ID   = 17567
ELEMENT_SET_NO = 999
REV_AT_EPOCH   = 8589
BSTAR          = .47919E-4
MEAN_MOTION_DOT = .445E-5
MEAN_MOTION_DDOT = 0

CCSDS_OMM_VERS = 2.0
CREATION_DATE  = 
ORIGINATOR     = 

OBJECT_NAME    = COSMOS 1833
OBJECT_ID      = 1987-027A
CENTER_NAME    = EARTH
REF_FRAME      = TEME
TIME_SYSTEM    = UTC
MEAN_ELEMENT_THEORY = SGP/SGP4

EPOCH          = 2026-02-22T20:28:09.732288
MEAN_MOTION    = 14.13057162
ECCENTRICITY   = .0024805
INCLINATION    = 70.9234
RA_OF_ASC_NODE = 357.1986
ARG_OF_PERICENTER = 234.8243
MEAN_ANOMALY   = 125.0554

EPHEMERIS_TYPE = 0
CLASSIFICATION_TYPE = U
NORAD_CAT_ID   = 17589
ELEMENT_SET_NO = 999
REV_AT_EPOCH   = 822
BSTAR          = -.17399E-4
MEAN_MOTION_DOT = -.81E-6
MEAN_MOTION_DDOT = 0

CCSDS_OMM_VERS = 2.0
CREATION_DATE  = 
ORIGINATOR     = 

OBJECT_NAME    = SL-16 R/B
OBJECT_ID      = 1987-027B
CENTER_NAME    = EARTH
REF_FRAME      = TEME
TIME_SYSTEM    = UTC
MEAN_ELEMENT_THEORY = SGP/SGP4

EPOCH          = 2026-02-22T17:28:52.159872
MEAN_MOTION    = 14.17166321
ECCENTRICITY   = .0004213
INCLINATION    = 71.0036
RA_OF_ASC_NODE = 308.0235
ARG_OF_PERICENTER = 170.6012
MEAN_ANOMALY   = 189.5192

EPHEMERIS_TYPE = 0
CLASSIFICATION_TYPE = U
NORAD_CAT_ID   = 17590
ELEMENT_SET_NO = 999
REV_AT_EPOCH   = 1322
BSTAR          = .11628E-3
MEAN_MOTION_DOT = .187E-5
MEAN_MOTION_DDOT = 0

CCSDS_OMM_VERS = 2.0
CREATION_DATE  = 
ORIGINATOR     = 

OBJECT_NAME    = SL-14 R/B
OBJECT_ID      = 1987-038B
CENTER_NAME    = EARTH
REF_FRAME      = TEME
TIME_SYSTEM    = UTC
MEAN_ELEMENT_THEORY = SGP/SGP4

EPOCH          = 2026-02-22T16:17:03.053184
MEAN_MOTION    = 14.85354292
ECCENTRICITY   = .0018354
INCLINATION    = 82.5028
RA_OF_ASC_NODE = 310.9474
ARG_OF_PERICENTER = 210.5366
MEAN_ANOMALY   = 149.4783

EPHEMERIS_TYPE = 0
CLASSIFICATION_TYPE = U
NORAD_CAT_ID   = 17912
ELEMENT_SET_NO = 999
REV_AT_EPOCH   = 7700
BSTAR          = .47255E-4
MEAN_MOTION_DOT = .431E-5
MEAN_MOTION_DDOT = 0

CCSDS_OMM_VERS = 2.0
CREATION_DATE  = 
ORIGINATOR     = 

OBJECT_NAME    = COSMOS 1844
OBJECT_ID      = 1987-041A
CENTER_NAME    = EARTH
REF_FRAME      = TEME
TIME_SYSTEM    = UTC
MEAN_ELEMENT_THEORY = SGP/SGP4

EPOCH          = 2026-02-22T18:17:49.244064
MEAN_MOTION    = 14.14552009
ECCENTRICITY   = .002926
INCLINATION    = 70.8985
RA_OF_ASC_NODE = 65.6615
ARG_OF_PERICENTER = 41.2431
MEAN_ANOMALY   = 319.0893

EPHEMERIS_TYPE = 0
CLASSIFICATION_TYPE = U
NORAD_CAT_ID   = 17973
ELEMENT_SET_NO = 999
REV_AT_EPOCH   = 147
BSTAR          = .97453E-4
MEAN_MOTION_DOT = .14E-5
MEAN_MOTION_DDOT = 0

CCSDS_OMM_VERS = 2.0
CREATION_DATE  = 
ORIGINATOR     = 

OBJECT_NAME    = SL-14 R/B
OBJECT_ID      = 1987-055B
CENTER_NAME    = EARTH
REF_FRAME      = TEME
TIME_SYSTEM    = UTC
MEAN_ELEMENT_THEORY = SGP/SGP4

EPOCH          = 2026-02-22T19:01:38.020224
MEAN_MOTION    = 14.85608929
ECCENTRICITY   = .002215
INCLINATION    = 82.5018
RA_OF_ASC_NODE = 3.0673
ARG_OF_PERICENTER = 64.6845
MEAN_ANOMALY   = 295.6662

EPHEMERIS_TYPE = 0
CLASSIFICATION_TYPE = U
NORAD_CAT_ID   = 18153
ELEMENT_SET_NO = 999
REV_AT_EPOCH   = 6772
BSTAR          = .64392E-4
MEAN_MOTION_DOT = .584E-5
MEAN_MOTION_DDOT = 0

CCSDS_OMM_VERS = 2.0
CREATION_DATE  = 
ORIGINATOR     = 

OBJECT_NAME    = COSMOS 1867
OBJECT_ID      = 1987-060A
CENTER_NAME    = EARTH
REF_FRAME      = TEME
TIME_SYSTEM    = UTC
MEAN_ELEMENT_THEORY = SGP/SGP4

EPOCH          = 2026-02-22T13:27:28.422432
MEAN_MOTION    = 14.31500412
ECCENTRICITY   = .001428
INCLINATION    = 65.0127
RA_OF_ASC_NODE = 349.0719
ARG_OF_PERICENTER = 277.7334
MEAN_ANOMALY   = 82.2129

EPHEMERIS_TYPE = 0
CLASSIFICATION_TYPE = U
NORAD_CAT_ID   = 18187
ELEMENT_SET_NO = 999
REV_AT_EPOCH   = 1777
BSTAR          = .22678E-4
MEAN_MOTION_DOT = -.4E-6
MEAN_MOTION_DDOT = 0

CCSDS_OMM_VERS = 2.0
CREATION_DATE  = 
ORIGINATOR     = 

OBJECT_NAME    = SL-14 R/B
OBJECT_ID      = 1988-001B
CENTER_NAME    = EARTH
REF_FRAME      = TEME
TIME_SYSTEM    = UTC
MEAN_ELEMENT_THEORY = SGP/SGP4

EPOCH          = 2026-02-22T17:16:21.411264
MEAN_MOTION    = 14.85507310
ECCENTRICITY   = .0016687
INCLINATION    = 82.5123
RA_OF_ASC_NODE = 209.4382
ARG_OF_PERICENTER = 289.6556
MEAN_ANOMALY   = 70.2859

EPHEMERIS_TYPE = 0
CLASSIFICATION_TYPE = U
NORAD_CAT_ID   = 18749
ELEMENT_SET_NO = 999
REV_AT_EPOCH   = 3980
BSTAR          = .6171E-4
MEAN_MOTION_DOT = .558E-5
MEAN_MOTION_DDOT = 0

